{
  "norad_id": 66854,
  "name": "STARLINK-36087",
  "history": [
    {
      "epoch": "2026-03-28T16:28:34.039776Z",
      "apogee_km": 483.73841517134224,
      "perigee_km": 482.17669282896077,
      "latitude_deg": -1.4234575839038975e-05,
      "longitude_deg": 162.70276628186232,
      "height_km": 482.6335168964942,
      "semi_major_axis_km": 6861.094554000151,
      "eccentricity": 0.00011381,
      "inclination_deg": 42.9974,
      "raan_deg": 235.948,
      "arg_perigee_deg": 277.3749,
      "mean_anomaly_deg": 82.6973,
      "mean_motion_rev_day": 15.27610572
    },
    {
      "epoch": "2026-03-30T09:16:38.641440Z",
      "apogee_km": 483.8361196535634,
      "perigee_km": 482.19767610274994,
      "latitude_deg": 1.5983485914057176e-05,
      "longitude_deg": -100.593023211712,
      "height_km": 482.365118036161,
      "semi_major_axis_km": 6861.153897878156,
      "eccentricity": 0.0001194,
      "inclination_deg": 42.9962,
      "raan_deg": 226.347,
      "arg_perigee_deg": 301.4793,
      "mean_anomaly_deg": 58.5942,
      "mean_motion_rev_day": 15.27590753
    },
    {
      "epoch": "2026-03-30T17:07:25.402944Z",
      "apogee_km": 483.91860211038966,
      "perigee_km": 482.1164512624091,
      "latitude_deg": 1.4293784741381465e-05,
      "longitude_deg": 139.54729874132758,
      "height_km": 482.3582466000932,
      "semi_major_axis_km": 6861.154526686399,
      "eccentricity": 0.00013133,
      "inclination_deg": 42.9999,
      "raan_deg": 224.5044,
      "arg_perigee_deg": 298.925,
      "mean_anomaly_deg": 61.147,
      "mean_motion_rev_day": 15.27590543
    },
    {
      "epoch": "2026-03-31T08:48:59.122080Z",
      "apogee_km": 483.83409180432864,
      "perigee_km": 482.06873375572104,
      "latitude_deg": -3.435709335147622e-05,
      "longitude_deg": -100.18412497958403,
      "height_km": 482.3220932732996,
      "semi_major_axis_km": 6861.088412780025,
      "eccentricity": 0.00012865,
      "inclination_deg": 42.9956,
      "raan_deg": 220.808,
      "arg_perigee_deg": 297.3388,
      "mean_anomaly_deg": 62.7332,
      "mean_motion_rev_day": 15.27612623
    },
    {
      "epoch": "2026-04-01T14:37:57.609120Z",
      "apogee_km": 483.89474268409504,
      "perigee_km": 482.16161236025255,
      "latitude_deg": 3.065717226004566e-05,
      "longitude_deg": 164.33174027164966,
      "height_km": 483.0823426373023,
      "semi_major_axis_km": 6861.1651775221735,
      "eccentricity": 0.0001263,
      "inclination_deg": 42.9998,
      "raan_deg": 213.792,
      "arg_perigee_deg": 251.3092,
      "mean_anomaly_deg": 108.7623,
      "mean_motion_rev_day": 15.27586986
    },
    {
      "epoch": "2026-04-02T17:18:38.475360Z",
      "apogee_km": 484.28890322211464,
      "perigee_km": 481.74849171357073,
      "latitude_deg": -5.46682051475141e-05,
      "longitude_deg": 116.7913469810225,
      "height_km": 482.7256203518802,
      "semi_major_axis_km": 6861.155697467842,
      "eccentricity": 0.00018513,
      "inclination_deg": 43.0018,
      "raan_deg": 207.5176,
      "arg_perigee_deg": 273.175,
      "mean_anomaly_deg": 86.8889,
      "mean_motion_rev_day": 15.27590152
    },
    {
      "epoch": "2026-04-03T16:50:58.821216Z",
      "apogee_km": 484.36735246819444,
      "perigee_km": 481.53646718399887,
      "latitude_deg": -4.606530958908175e-05,
      "longitude_deg": 117.20037014110093,
      "height_km": 482.8085582378031,
      "semi_major_axis_km": 6861.088909826096,
      "eccentricity": 0.0002063,
      "inclination_deg": 43.0053,
      "raan_deg": 201.9781,
      "arg_perigee_deg": 266.8066,
      "mean_anomaly_deg": 93.2549,
      "mean_motion_rev_day": 15.27612457
    },
    {
      "epoch": "2026-04-04T14:49:08.760000Z",
      "apogee_km": 484.6200686086031,
      "perigee_km": 481.15525115536366,
      "latitude_deg": 2.4577067957254888e-06,
      "longitude_deg": 141.58445734460943,
      "height_km": 483.0325161415118,
      "semi_major_axis_km": 6861.024659881983,
      "eccentricity": 0.0002525,
      "inclination_deg": 43.0037,
      "raan_deg": 196.8058,
      "arg_perigee_deg": 257.7698,
      "mean_anomaly_deg": 102.2871,
      "mean_motion_rev_day": 15.27633915
    },
    {
      "epoch": "2026-04-05T08:04:54.426720Z",
      "apogee_km": 484.3045685795114,
      "perigee_km": 481.9924525881552,
      "latitude_deg": 1.5027887987482726e-05,
      "longitude_deg": -122.12276150715309,
      "height_km": 482.6328640034855,
      "semi_major_axis_km": 6861.285510583833,
      "eccentricity": 0.00016849,
      "inclination_deg": 43.0021,
      "raan_deg": 192.7478,
      "arg_perigee_deg": 284.672,
      "mean_anomaly_deg": 75.3945,
      "mean_motion_rev_day": 15.275468
    },
    {
      "epoch": "2026-04-05T15:55:41.639232Z",
      "apogee_km": 484.1805608386503,
      "perigee_km": 481.96713421923687,
      "latitude_deg": 4.265260481342914e-05,
      "longitude_deg": 118.01090640053495,
      "height_km": 482.5793252391617,
      "semi_major_axis_km": 6861.210847528943,
      "eccentricity": 0.0001613,
      "inclination_deg": 43.0015,
      "raan_deg": 190.9004,
      "arg_perigee_deg": 284.204,
      "mean_anomaly_deg": 75.8633,
      "mean_motion_rev_day": 15.27571734
    },
    {
      "epoch": "2026-04-06T06:03:05.597568Z",
      "apogee_km": 483.9766073957553,
      "perigee_km": 481.944075919263,
      "latitude_deg": -1.9017993576794818e-05,
      "longitude_deg": -97.7429112067117,
      "height_km": 482.534260817638,
      "semi_major_axis_km": 6861.097341657509,
      "eccentricity": 0.00014812,
      "inclination_deg": 43.0014,
      "raan_deg": 187.5765,
      "arg_perigee_deg": 281.5229,
      "mean_anomaly_deg": 78.5456,
      "mean_motion_rev_day": 15.27609641
    },
    {
      "epoch": "2026-04-07T11:52:02.397216Z",
      "apogee_km": 483.917136975404,
      "perigee_km": 482.1053821659816,
      "latitude_deg": 3.215067229807475e-05,
      "longitude_deg": 166.779184375243,
      "height_km": 482.94125532884715,
      "semi_major_axis_km": 6861.148259570692,
      "eccentricity": 0.00013203,
      "inclination_deg": 43.0009,
      "raan_deg": 180.5597,
      "arg_perigee_deg": 260.2569,
      "mean_anomaly_deg": 99.8134,
      "mean_motion_rev_day": 15.27592636
    },
    {
      "epoch": "2026-04-08T14:32:42.550656Z",
      "apogee_km": 483.92683259455043,
      "perigee_km": 482.1790130736081,
      "latitude_deg": 2.109235808665312e-05,
      "longitude_deg": 119.23954407501543,
      "height_km": 482.8419181615468,
      "semi_major_axis_km": 6861.189922834079,
      "eccentricity": 0.00012737,
      "inclination_deg": 43.0023,
      "raan_deg": 174.283,
      "arg_perigee_deg": 269.2036,
      "mean_anomaly_deg": 90.867,
      "mean_motion_rev_day": 15.27578722
    },
    {
      "epoch": "2026-04-09T10:56:44.040192Z",
      "apogee_km": 483.8145329699373,
      "perigee_km": 482.16470646295875,
      "latitude_deg": 2.58001844662036e-06,
      "longitude_deg": 167.59430016861475,
      "height_km": 482.79794517156466,
      "semi_major_axis_km": 6861.126619716448,
      "eccentricity": 0.00012023,
      "inclination_deg": 43.0016,
      "raan_deg": 169.4818,
      "arg_perigee_deg": 267.8033,
      "mean_anomaly_deg": 92.2681,
      "mean_motion_rev_day": 15.27599863
    },
    {
      "epoch": "2026-04-10T05:46:36.638112Z",
      "apogee_km": 484.41481642974577,
      "perigee_km": 481.5797957344721,
      "latitude_deg": -2.1196535300482704e-05,
      "longitude_deg": -120.07965841636634,
      "height_km": 482.53307583755605,
      "semi_major_axis_km": 6861.134306082108,
      "eccentricity": 0.0002066,
      "inclination_deg": 43.002,
      "raan_deg": 165.0504,
      "arg_perigee_deg": 279.817,
      "mean_anomaly_deg": 80.2448,
      "mean_motion_rev_day": 15.27597296
    }
  ]
}